STARLINK-3982           
1 52614U 22052S   24237.38155760  .00000120  00000+0  25621-4 0  9994
2 52614  53.2146 273.4205 0001473  97.1391 262.9769 15.08841258126102
STARLINK-4011           
1 52615U 22052T   24237.42985634  .00001012  00000+0  81685-4 0  9994
2 52615  53.2159 288.2025 0001465  90.3956 269.7204 15.08846021125891
STARLINK-4015           
1 52616U 22052U   24237.37420044  .00002267  00000+0  16044-3 0  9997
2 52616  53.2146 273.4555 0001439  92.0065 268.1092 15.08842976126101
STARLINK-3996           
1 52617U 22052V   24237.36684299  .00001364  00000+0  10379-3 0  9993
2 52617  53.2146 273.4883 0001352  84.7782 275.3365 15.08836008126094
STARLINK-3983           
1 52618U 22052W   24237.37052176  .00000362  00000+0  40812-4 0  9991
2 52618  53.2147 273.4716 0001367  97.7028 262.4119 15.08834673126094
STARLINK-3741           
1 52619U 22052X   24237.49563921  .00000698  00000+0  61906-4 0  9999
2 52619  53.2151 272.8998 0001350  90.7194 269.3953 15.08842428126116
STARLINK-3975           
1 52620U 22052Y   24237.42617592  .00000922  00000+0  75981-4 0  9996
2 52620  53.2157 288.2170 0001578  96.7143 263.4029 15.08844864125898
STARLINK-3984           
1 52621U 22052Z   24237.42204199  .00001139  00000+0  89613-4 0  9990
2 52621  53.2157 273.2406 0001483  84.9732 275.1430 15.08841503126482
STARLINK-4008           
1 52622U 22052AA  24237.52185481 -.00001142  00000+0 -53671-4 0  9995
2 52622  53.2157 287.7946 0001367  93.6112 266.5036 15.08850827125914
STARLINK-3986           
1 52623U 22052AB  24237.41836251  .00001609  00000+0  11919-3 0  9996
2 52623  53.2158 273.2573 0001405  91.3641 268.7512 15.08840369126483
STARLINK-4009           
1 52624U 22052AC  24237.42667252  .00000674  00000+0  60445-4 0  9991
2 52624  53.2160 273.2025 0001405  88.1838 271.9315 15.08843460126102
STARLINK-3988           
1 52625U 22052AD  24237.48092740 -.00001002  00000+0 -44886-4 0  9991
2 52625  53.2154 272.9765 0001407  84.5617 275.5536 15.08835594126115
STARLINK-3990           
1 52626U 22052AE  24237.35947952  .00001196  00000+0  93230-4 0  9991
2 52626  53.2153 273.5229 0001461  84.7816 275.3343 15.08839305126095
STARLINK-3992           
1 52627U 22052AF  24237.40364214  .00000471  00000+0  47660-4 0  9993
2 52627  53.2159 273.3232 0001473  85.6943 274.4217 15.08835875126119
STARLINK-4001           
1 52628U 22052AG  24237.45195032  .00008386  00000+0  54423-3 0  9996
2 52628  53.2153 288.1077 0001062 111.1685 248.9421 15.08849055125901
STARLINK-4022           
1 52629U 22052AH  24237.39628096  .00000535  00000+0  51737-4 0  9995
2 52629  53.2157 273.3148 0001367  89.9087 270.2062 15.08832431126109
STARLINK-3989           
1 52630U 22052AJ  24237.41100190  .00000245  00000+0  33491-4 0  9995
2 52630  53.2162 273.2890 0001367  88.8390 271.2759 15.08836414126104
STARLINK-3794           
1 52631U 22052AK  24237.39725117  .00000373  00000+0  41547-4 0  9998
2 52631  53.2160 273.3600 0001227  90.6867 269.4265 15.08831830126117
STARLINK-3995           
1 52632U 22052AL  24237.40732494  .00000370  00000+0  41326-4 0  9999
2 52632  53.2160 273.3038 0001383  87.8386 272.2765 15.08833371126119
STARLINK-3994           
1 52633U 22052AM  24237.38523711  .00001039  00000+0  83356-4 0  9999
2 52633  53.2160 273.4032 0001371  89.5558 270.5591 15.08840764126114
STARLINK-3974           
1 52634U 22052AN  24237.39996342  .00000946  00000+0  77518-4 0  9994
2 52634  53.2160 273.3646 0001514  86.6205 273.4960 15.08836240126106
STARLINK-3978           
1 52635U 22052AP  24237.36776008  .00000379  00000+0  41897-4 0  9998
2 52635  53.2158 263.4816 0001323  89.2194 270.8949 15.08838899126242
STARLINK-3967           
1 52636U 22052AQ  24237.39259983 -.00000102  00000+0  11679-4 0  9990
2 52636  53.2156 273.3712 0001371  93.0725 267.0424 15.08839130126102
STARLINK-3961           
1 52637U 22052AR  24237.49656342 -.00001017  00000+0 -45809-4 0  9991
2 52637  53.2146 262.9061 0001250  88.3192 271.7943 15.08833177126635
STARLINK-3941           
1 52638U 22052AS  24237.38891720  .00000997  00000+0  80738-4 0  9995
2 52638  53.2160 273.3876 0001397  93.1808 266.9344 15.08839140126910
STARLINK-3968           
1 52639U 22052AT  24237.35303982  .00000466  00000+0  47384-4 0  9992
2 52639  53.2157 263.5503 0001429  91.0558 269.0598 15.08839741127047
STARLINK-3977           
1 52640U 22052AU  24237.43768432  .00001173  00000+0  91768-4 0  9999
2 52640  53.2156 263.1973 0001509  95.0475 265.0689 15.08841802126245
STARLINK-3991           
1 52641U 22052AV  24237.36873820  .00000406  00000+0  43567-4 0  9992
2 52641  53.2156 263.6811 0001340  92.0518 268.0628 15.08840674126242
STARLINK-3971           
1 52642U 22052AW  24237.36040049 -.00000184  00000+0  65118-5 0  9993
2 52642  53.2152 263.5151 0001548 100.9608 259.1558 15.08838340126233
STARLINK-3963           
1 52643U 22052AX  24237.33559485  .00000261  00000+0  34484-4 0  9996
2 52643  53.2158 263.5996 0001527  83.7320 276.3846 15.08842239126236
STARLINK-3985           
1 52644U 22052AY  24237.35671889  .00000859  00000+0  72080-4 0  9999
2 52644  53.2156 263.5333 0001426  92.3623 267.7533 15.08840226126231
STARLINK-3973           
1 52645U 22052AZ  24237.47818009  .00000156  00000+0  27882-4 0  9990
2 52645  53.2149 263.0929 0001410  95.4454 264.6699 15.08836088126251
STARLINK-3832           
1 52646U 22052BA  24237.48183894  .00000246  00000+0  33575-4 0  9995
2 52646  53.2153 263.0101 0001411  90.8829 269.2325 15.08843063126264
STARLINK-3846           
1 52647U 22052BB  24237.33833401  .00000609  00000+0  56341-4 0  9995
2 52647  53.2156 263.7221 0001493  85.7046 274.4116 15.08842977126249
STARLINK-3854           
1 52648U 22052BC  24237.47447547 -.00001702  00000+0 -88860-4 0  9991
2 52648  53.2155 263.0027 0001240 109.6214 250.4912 15.08846723126251
STARLINK-3868           
1 52649U 22052BD  24237.51495406  .00001807  00000+0  13159-3 0  9996
2 52649  53.2146 262.6745 0001405  92.4105 267.7048 15.08837113126271
STARLINK-3891           
1 52650U 22052BE  24237.35029259  .00000541  00000+0  52091-4 0  9992
2 52650  53.2155 253.6666 0001495  83.1331 276.9831 15.08835865126388
STARLINK-4004           
1 52656U 22053A   24237.51269556  .00001134  00000+0  89330-4 0  9998
2 52656  53.2168 157.8384 0001180  88.6943 271.4184 15.08842883126244
STARLINK-4084           
1 52657U 22053B   24237.48329384  .00000552  00000+0  52748-4 0  9997
2 52657  53.2176 158.2842 0001279  97.7546 262.3592 15.08841814126534
STARLINK-4082           
1 52658U 22053C   24237.51542066  .00020862  00000+0  13244-2 0  9998
2 52658  53.2152 157.8191 0001430 100.3776 259.7377 15.08855512126368
STARLINK-3960           
1 52659U 22053D   24237.18053354  .00001455  00000+0  10945-3 0  9992
2 52659  53.2168 159.2724 0001215  87.2648 272.8483 15.08844425126305
STARLINK-4081           
1 52660U 22053E   24237.50805338  .00001414  00000+0  10686-3 0  9994
2 52660  53.2161 157.8511 0001149  88.9893 271.1231 15.08849676126243
STARLINK-4042           
1 52661U 22053F   24237.50438176  .00000825  00000+0  69901-4 0  9997
2 52661  53.2161 157.8684 0001360  84.4700 275.6447 15.08840100126171
STARLINK-4044           
1 52662U 22053G   24237.49701878  .00001100  00000+0  87212-4 0  9990
2 52662  53.2178 157.9016 0001440  85.5798 274.5358 15.08842087126173
STARLINK-4037           
1 52663U 22053H   24237.49334658  .00001210  00000+0  94117-4 0  9993
2 52663  53.2180 157.9227 0001507  94.9476 265.1688 15.08839586126174
STARLINK-4070           
1 52664U 22053J   24237.50070426  .00001951  00000+0  14061-3 0  9997
2 52664  53.2173 157.8852 0001352  86.8352 273.2795 15.08838840126172
STARLINK-4064           
1 52665U 22053K   24237.48229584  .00001996  00000+0  14342-3 0  9997
2 52665  53.2182 157.9728 0001402  96.7892 263.3260 15.08844547126179
STARLINK-4079           
1 52666U 22053L   24237.51905464  .00004962  00000+0  32955-3 0  9996
2 52666  53.2155 157.4149 0001435  87.2959 272.8197 15.08846163126188
STARLINK-4076           
1 52667U 22053M   24237.47861965  .00006030  00000+0  39660-3 0  9997
2 52667  53.2161 157.9863 0001278  93.0697 267.0441 15.08839489126173
STARLINK-4067           
1 52668U 22053N   24237.48598022  .00000755  00000+0  65514-4 0  9996
2 52668  53.2178 157.9556 0001364  91.9533 268.1615 15.08839560126178
STARLINK-3972           
1 52669U 22053P   24237.20261912  .00001101  00000+0  87243-4 0  9991
2 52669  53.2158 159.2243 0001255  87.8342 272.2794 15.08837644126126
STARLINK-4075           
1 52670U 22053Q   24237.48967114  .00000430  00000+0  45093-4 0  9991
2 52670  53.2171 158.0026 0001317  85.9582 274.1560 15.08837218126177
STARLINK-4071           
1 52671U 22053R   24237.19893845  .00003515  00000+0  23878-3 0  9992
2 52671  53.2161 159.2399 0001442  95.8849 264.2308 15.08846529126128
STARLINK-4073           
1 52672U 22053S   24237.47493634 -.00000529  00000+0 -15120-4 0  9992
2 52672  53.2169 158.0016 0001428  90.1231 269.9925 15.08848879126168
STARLINK-3976           
1 52673U 22053T   24237.52277627 -.00001315  00000+0 -64560-4 0  9997
2 52673  53.2175 157.7879 0001292  81.3708 278.7430 15.08834343126170
STARLINK-3936           
1 52674U 22053U   24237.20630119  .00003018  00000+0  20756-3 0  9990
2 52674  53.2150 159.2077 0001263  80.6335 279.4800 15.08850479126130
STARLINK-3934           
1 52675U 22053V   24237.45378428 -.00000542  00000+0 -15953-4 0  9995
2 52675  53.2165 148.0993 0001543  95.0630 265.0538 15.08834596126297
STARLINK-4006           
1 52676U 22053W   24237.19523528  .00003560  00000+0  24152-3 0  9991
2 52676  53.2158 159.2550 0001179  93.5363 266.5764 15.08862840126126
STARLINK-4028           
1 52677U 22053X   24237.44641968  .00000432  00000+0  45228-4 0  9992
2 52677  53.2169 148.1302 0001417  93.4140 266.7014 15.08839350125868
